CCSDS_OMM_VERS = 2.0
CREATION_DATE  = 
ORIGINATOR     = 

OBJECT_NAME    = ATLAS CENTAUR 2
OBJECT_ID      = 1963-047A
CENTER_NAME    = EARTH
REF_FRAME      = TEME
TIME_SYSTEM    = UTC
MEAN_ELEMENT_THEORY = SGP/SGP4

EPOCH          = 2025-11-21T12:11:58.869600
MEAN_MOTION    = 14.11575163
ECCENTRICITY   = .0549566
INCLINATION    = 30.3560
RA_OF_ASC_NODE = 80.0273
ARG_OF_PERICENTER = 207.1965
MEAN_ANOMALY   = 149.8816

EPHEMERIS_TYPE = 0
CLASSIFICATION_TYPE = U
NORAD_CAT_ID   = 694
ELEMENT_SET_NO = 999
REV_AT_EPOCH   = 11632
BSTAR          = .54304E-3
MEAN_MOTION_DOT = .4524E-4
MEAN_MOTION_DDOT = 0

CCSDS_OMM_VERS = 2.0
CREATION_DATE  = 
ORIGINATOR     = 

OBJECT_NAME    = THOR AGENA D R/B
OBJECT_ID      = 1964-002A
CENTER_NAME    = EARTH
REF_FRAME      = TEME
TIME_SYSTEM    = UTC
MEAN_ELEMENT_THEORY = SGP/SGP4

EPOCH          = 2025-11-21T20:37:02.600832
MEAN_MOTION    = 14.33941764
ECCENTRICITY   = .003237
INCLINATION    = 99.1220
RA_OF_ASC_NODE = 328.3484
ARG_OF_PERICENTER = 210.9992
MEAN_ANOMALY   = 148.9281

EPHEMERIS_TYPE = 0
CLASSIFICATION_TYPE = U
NORAD_CAT_ID   = 733
ELEMENT_SET_NO = 999
REV_AT_EPOCH   = 22284
BSTAR          = .10371E-3
MEAN_MOTION_DOT = .242E-5
MEAN_MOTION_DDOT = 0

CCSDS_OMM_VERS = 2.0
CREATION_DATE  = 
ORIGINATOR     = 

OBJECT_NAME    = SL-3 R/B
OBJECT_ID      = 1964-053B
CENTER_NAME    = EARTH
REF_FRAME      = TEME
TIME_SYSTEM    = UTC
MEAN_ELEMENT_THEORY = SGP/SGP4

EPOCH          = 2025-11-21T06:54:25.873344
MEAN_MOTION    = 14.61242584
ECCENTRICITY   = .0071908
INCLINATION    = 65.0769
RA_OF_ASC_NODE = 289.0122
ARG_OF_PERICENTER = 327.5664
MEAN_ANOMALY   = 32.1026

EPHEMERIS_TYPE = 0
CLASSIFICATION_TYPE = U
NORAD_CAT_ID   = 877
ELEMENT_SET_NO = 999
REV_AT_EPOCH   = 25095
BSTAR          = .12685E-3
MEAN_MOTION_DOT = .526E-5
MEAN_MOTION_DDOT = 0

CCSDS_OMM_VERS = 2.0
CREATION_DATE  = 
ORIGINATOR     = 

OBJECT_NAME    = SL-8 R/B
OBJECT_ID      = 1967-045B
CENTER_NAME    = EARTH
REF_FRAME      = TEME
TIME_SYSTEM    = UTC
MEAN_ELEMENT_THEORY = SGP/SGP4

EPOCH          = 2025-11-21T19:44:58.259328
MEAN_MOTION    = 14.45513338
ECCENTRICITY   = .0065191
INCLINATION    = 74.0100
RA_OF_ASC_NODE = 189.5193
ARG_OF_PERICENTER = 223.5357
MEAN_ANOMALY   = 136.0645

EPHEMERIS_TYPE = 0
CLASSIFICATION_TYPE = U
NORAD_CAT_ID   = 2802
ELEMENT_SET_NO = 999
REV_AT_EPOCH   = 7343
BSTAR          = .94918E-4
MEAN_MOTION_DOT = .315E-5
MEAN_MOTION_DDOT = 0

CCSDS_OMM_VERS = 2.0
CREATION_DATE  = 
ORIGINATOR     = 

OBJECT_NAME    = SL-8 R/B
OBJECT_ID      = 1968-040B
CENTER_NAME    = EARTH
REF_FRAME      = TEME
TIME_SYSTEM    = UTC
MEAN_ELEMENT_THEORY = SGP/SGP4

EPOCH          = 2025-11-21T17:33:49.680864
MEAN_MOTION    = 15.02330256
ECCENTRICITY   = .0024086
INCLINATION    = 74.0296
RA_OF_ASC_NODE = 174.1285
ARG_OF_PERICENTER = 21.1941
MEAN_ANOMALY   = 339.0239

EPHEMERIS_TYPE = 0
CLASSIFICATION_TYPE = U
NORAD_CAT_ID   = 3230
ELEMENT_SET_NO = 999
REV_AT_EPOCH   = 7379
BSTAR          = .28057E-3
MEAN_MOTION_DOT = .3691E-4
MEAN_MOTION_DDOT = 0

CCSDS_OMM_VERS = 2.0
CREATION_DATE  = 
ORIGINATOR     = 

OBJECT_NAME    = OAO 2
OBJECT_ID      = 1968-110A
CENTER_NAME    = EARTH
REF_FRAME      = TEME
TIME_SYSTEM    = UTC
MEAN_ELEMENT_THEORY = SGP/SGP4

EPOCH          = 2025-11-21T12:55:37.652736
MEAN_MOTION    = 14.47224808
ECCENTRICITY   = .0005044
INCLINATION    = 34.9916
RA_OF_ASC_NODE = 149.0172
ARG_OF_PERICENTER = 44.1345
MEAN_ANOMALY   = 315.9747

EPHEMERIS_TYPE = 0
CLASSIFICATION_TYPE = U
NORAD_CAT_ID   = 3597
ELEMENT_SET_NO = 999
REV_AT_EPOCH   = 342
BSTAR          = .79265E-4
MEAN_MOTION_DOT = .275E-5
MEAN_MOTION_DDOT = 0

CCSDS_OMM_VERS = 2.0
CREATION_DATE  = 
ORIGINATOR     = 

OBJECT_NAME    = ISIS 1
OBJECT_ID      = 1969-009A
CENTER_NAME    = EARTH
REF_FRAME      = TEME
TIME_SYSTEM    = UTC
MEAN_ELEMENT_THEORY = SGP/SGP4

EPOCH          = 2025-11-21T13:15:45.953280
MEAN_MOTION    = 11.30342499
ECCENTRICITY   = .1707127
INCLINATION    = 88.4501
RA_OF_ASC_NODE = 167.1136
ARG_OF_PERICENTER = 307.5209
MEAN_ANOMALY   = 38.2277

EPHEMERIS_TYPE = 0
CLASSIFICATION_TYPE = U
NORAD_CAT_ID   = 3669
ELEMENT_SET_NO = 999
REV_AT_EPOCH   = 33631
BSTAR          = .12636E-3
MEAN_MOTION_DOT = .174E-5
MEAN_MOTION_DDOT = 0

CCSDS_OMM_VERS = 2.0
CREATION_DATE  = 
ORIGINATOR     = 

OBJECT_NAME    = SERT 2
OBJECT_ID      = 1970-009A
CENTER_NAME    = EARTH
REF_FRAME      = TEME
TIME_SYSTEM    = UTC
MEAN_ELEMENT_THEORY = SGP/SGP4

EPOCH          = 2025-11-21T21:29:23.685792
MEAN_MOTION    = 13.58713702
ECCENTRICITY   = .0005713
INCLINATION    = 99.2616
RA_OF_ASC_NODE = 269.9622
ARG_OF_PERICENTER = 80.5500
MEAN_ANOMALY   = 347.7169

EPHEMERIS_TYPE = 0
CLASSIFICATION_TYPE = U
NORAD_CAT_ID   = 4327
ELEMENT_SET_NO = 999
REV_AT_EPOCH   = 76525
BSTAR          = .10809E-3
MEAN_MOTION_DOT = .38E-6
MEAN_MOTION_DDOT = 0

CCSDS_OMM_VERS = 2.0
CREATION_DATE  = 
ORIGINATOR     = 

OBJECT_NAME    = SL-3 R/B
OBJECT_ID      = 1971-028B
CENTER_NAME    = EARTH
REF_FRAME      = TEME
TIME_SYSTEM    = UTC
MEAN_ELEMENT_THEORY = SGP/SGP4

EPOCH          = 2025-11-21T19:24:17.646912
MEAN_MOTION    = 15.53006993
ECCENTRICITY   = .0020323
INCLINATION    = 81.2384
RA_OF_ASC_NODE = 184.4032
ARG_OF_PERICENTER = 317.3779
MEAN_ANOMALY   = 42.5892

EPHEMERIS_TYPE = 0
CLASSIFICATION_TYPE = U
NORAD_CAT_ID   = 5118
ELEMENT_SET_NO = 999
REV_AT_EPOCH   = 97188
BSTAR          = .45311E-3
MEAN_MOTION_DOT = .28595E-3
MEAN_MOTION_DDOT = 0

CCSDS_OMM_VERS = 2.0
CREATION_DATE  = 
ORIGINATOR     = 

OBJECT_NAME    = ASTEX 1
OBJECT_ID      = 1971-089A
CENTER_NAME    = EARTH
REF_FRAME      = TEME
TIME_SYSTEM    = UTC
MEAN_ELEMENT_THEORY = SGP/SGP4

EPOCH          = 2025-11-21T11:00:56.486304
MEAN_MOTION    = 14.50605170
ECCENTRICITY   = .0017892
INCLINATION    = 92.7129
RA_OF_ASC_NODE = 116.7360
ARG_OF_PERICENTER = 90.4013
MEAN_ANOMALY   = 269.9243

EPHEMERIS_TYPE = 0
CLASSIFICATION_TYPE = U
NORAD_CAT_ID   = 5560
ELEMENT_SET_NO = 999
REV_AT_EPOCH   = 84661
BSTAR          = .16798E-3
MEAN_MOTION_DOT = .659E-5
MEAN_MOTION_DDOT = 0

CCSDS_OMM_VERS = 2.0
CREATION_DATE  = 
ORIGINATOR     = 

OBJECT_NAME    = SL-8 R/B
OBJECT_ID      = 1971-119B
CENTER_NAME    = EARTH
REF_FRAME      = TEME
TIME_SYSTEM    = UTC
MEAN_ELEMENT_THEORY = SGP/SGP4

EPOCH          = 2025-11-21T15:21:34.971840
MEAN_MOTION    = 14.35166247
ECCENTRICITY   = .0560699
INCLINATION    = 73.8891
RA_OF_ASC_NODE = 17.2929
ARG_OF_PERICENTER = 5.8375
MEAN_ANOMALY   = 354.8949

EPHEMERIS_TYPE = 0
CLASSIFICATION_TYPE = U
NORAD_CAT_ID   = 5730
ELEMENT_SET_NO = 999
REV_AT_EPOCH   = 63997
BSTAR          = .46191E-3
MEAN_MOTION_DOT = .8744E-4
MEAN_MOTION_DDOT = 0

CCSDS_OMM_VERS = 2.0
CREATION_DATE  = 
ORIGINATOR     = 

OBJECT_NAME    = OAO 3 (COPERNICUS)
OBJECT_ID      = 1972-065A
CENTER_NAME    = EARTH
REF_FRAME      = TEME
TIME_SYSTEM    = UTC
MEAN_ELEMENT_THEORY = SGP/SGP4

EPOCH          = 2025-11-21T00:15:29.289888
MEAN_MOTION    = 14.59879373
ECCENTRICITY   = .0006796
INCLINATION    = 35.0045
RA_OF_ASC_NODE = 196.4460
ARG_OF_PERICENTER = 344.9085
MEAN_ANOMALY   = 149.2411

EPHEMERIS_TYPE = 0
CLASSIFICATION_TYPE = U
NORAD_CAT_ID   = 6153
ELEMENT_SET_NO = 999
REV_AT_EPOCH   = 83030
BSTAR          = .8449E-4
MEAN_MOTION_DOT = .389E-5
MEAN_MOTION_DDOT = 0

