ATLAS CENTAUR 2         
1 00694U 63047A   25325.50832025  .00004524  00000+0  54304-3 0  9994
2 00694  30.3560  80.0273 0549566 207.1965 149.8816 14.11575163116327
THOR AGENA D R/B        
1 00733U 64002A   25325.85905788  .00000242  00000+0  10371-3 0  9994
2 00733  99.1220 328.3484 0032370 210.9992 148.9281 14.33941764222840
SL-3 R/B                
1 00877U 64053B   25325.28779946  .00000526  00000+0  12685-3 0  9996
2 00877  65.0769 289.0122 0071908 327.5664  32.1026 14.61242584250951
SL-8 R/B                
1 02802U 67045B   25325.82289652  .00000315  00000+0  94918-4 0  9996
2 02802  74.0100 189.5193 0065191 223.5357 136.0645 14.45513338 73430
SL-8 R/B                
1 03230U 68040B   25325.73182501  .00003691  00000+0  28057-3 0  9993
2 03230  74.0296 174.1285 0024086  21.1941 339.0239 15.02330256 73796
OAO 2                   
1 03597U 68110A   25325.53863024  .00000275  00000+0  79265-4 0  9994
2 03597  34.9916 149.0172 0005044  44.1345 315.9747 14.47224808  3421
ISIS 1                  
1 03669U 69009A   25325.55261520  .00000174  00000+0  12636-3 0  9993
2 03669  88.4501 167.1136 1707127 307.5209  38.2277 11.30342499336319
SERT 2                  
1 04327U 70009A   25325.89541303  .00000038  00000+0  10809-3 0  9993
2 04327  99.2616 269.9622 0005713  80.5500 347.7169 13.58713702765250
SL-3 R/B                
1 05118U 71028B   25325.80853758  .00028595  00000+0  45311-3 0  9999
2 05118  81.2384 184.4032 0020323 317.3779  42.5892 15.53006993971886
ASTEX 1                 
1 05560U 71089A   25325.45898711  .00000659  00000+0  16798-3 0  9994
2 05560  92.7129 116.7360 0017892  90.4013 269.9243 14.50605170846615
SL-8 R/B                
1 05730U 71119B   25325.63998810  .00008744  00000+0  46191-3 0  9991
2 05730  73.8891  17.2929 0560699   5.8375 354.8949 14.35166247639971
OAO 3 (COPERNICUS)      
1 06153U 72065A   25325.01075567  .00000389  00000+0  84490-4 0  9991
2 06153  35.0045 196.4460 0006796 344.9085 149.2411 14.59879373830307
